{"type":"FeatureCollection","features":[{"type":"Feature","geometry":{"type":"Polygon","coordinates":[[[2.263248,48.829311],[2.26324,48.829282],[2.263707,48.829212],[2.263803,48.829208],[2.263838,48.829221],[2.264023,48.829344],[2.264055,48.829408],[2.264326,48.8296],[2.264278,48.829628],[2.264239,48.829645],[2.264192,48.829661],[2.264156,48.829667],[2.264144,48.829652],[2.264061,48.829673],[2.264071,48.829689],[2.263999,48.829693],[2.263929,48.829692],[2.263862,48.829685],[2.263786,48.829674],[2.263751,48.829631],[2.263668,48.829657],[2.26353,48.829484],[2.263487,48.829498],[2.263473,48.82948],[2.263453,48.829486],[2.263379,48.829363],[2.263299,48.829376],[2.263248,48.829311]]]},"properties":{"name":"Place Lafayette","description":"","Équipe":"GPSO","Heure":"00:00","Commentaires":"","_umap_options":{"color":"Green","opacity":"0,6","weight":"9","showLabel":""}}},{"type":"Feature","geometry":{"type":"Polygon","coordinates":[[[2.260035,48.81699],[2.259957,48.817009],[2.259927,48.816992],[2.259785,48.81702],[2.259675,48.817039],[2.259665,48.817029],[2.259595,48.817048],[2.259597,48.817036],[2.259455,48.817071],[2.259386,48.817094],[2.259351,48.81711],[2.259268,48.817126],[2.25927,48.817138],[2.259219,48.817152],[2.259166,48.817159],[2.259273,48.817325],[2.259477,48.817276],[2.259528,48.817262],[2.259616,48.817433],[2.259587,48.817437],[2.259675,48.817589],[2.259729,48.817576],[2.25986,48.81783],[2.260276,48.817746],[2.26023,48.817659],[2.260204,48.81767],[2.260174,48.817594],[2.260118,48.817603],[2.260062,48.817507],[2.260091,48.817495],[2.26007,48.817465],[2.260121,48.817451],[2.260053,48.817294],[2.260035,48.817295],[2.259807,48.817216],[2.259935,48.817135],[2.259973,48.817133],[2.259954,48.817108],[2.260008,48.817092],[2.260016,48.81711],[2.260118,48.817085],[2.260102,48.817055],[2.260078,48.817062],[2.26007,48.817036],[2.260035,48.81699]]]},"properties":{"name":"Esplanade des Constellations","description":"","Équipe":"GPSO","Heure":"00:00","Commentaires":"","_umap_options":{"color":"Green","opacity":"0,7","weight":"3","showLabel":""}}},{"type":"Feature","geometry":{"type":"Polygon","coordinates":[[[2.266654,48.818027],[2.269009,48.818341],[2.27034,48.817034],[2.27034,48.816956],[2.270313,48.816875],[2.269031,48.816027],[2.268795,48.815971],[2.268704,48.815988],[2.26711,48.816419],[2.267041,48.816529],[2.266751,48.816663],[2.266676,48.816705],[2.266654,48.818027]]]},"properties":{"name":"Fort d'Issy","description":"","Équipe":"GPSO","Heure":"00:00","Commentaires":"","_umap_options":{"color":"Green","opacity":"0,7","weight":"9","showLabel":""}}},{"type":"Feature","geometry":{"type":"Polygon","coordinates":[[[2.267341,48.818316],[2.267446,48.818177],[2.268215,48.818277],[2.268234,48.818433],[2.267341,48.818316]]]},"properties":{"name":"Miroir d'eau","description":"","Équipe":"GPSO","Heure":"00:00","Commentaires":"","_umap_options":{"color":"Green","opacity":"0,7","weight":"9","showLabel":""}}},{"type":"Feature","geometry":{"type":"LineString","coordinates":[[2.261199,48.817331],[2.26114,48.817384],[2.26033,48.818362],[2.260287,48.818454],[2.260314,48.818606],[2.260335,48.818645],[2.260512,48.818779],[2.263296,48.819482]]},"properties":{"name":"Rue d'Erevan","description":"","Équipe":"GPSO","Heure":"00:00","Commentaires":"","_umap_options":{"color":"Green","opacity":"0,7","weight":"9","showLabel":""}}},{"type":"Feature","geometry":{"type":"LineString","coordinates":[[2.258817,48.815533],[2.259225,48.815858],[2.259675,48.816246],[2.260029,48.816508],[2.260587,48.816882],[2.261124,48.817221],[2.261596,48.817518],[2.262164,48.817942],[2.262626,48.818288],[2.263108,48.818613],[2.263688,48.819058],[2.263956,48.81915],[2.264353,48.819249],[2.264868,48.819326],[2.266273,48.819559]]},"properties":{"name":"Rue de l'Égalité","description":"","Équipe":"GPSO","Heure":"00:00","Commentaires":"","_umap_options":{"color":"Green","opacity":"0,7","weight":"9","showLabel":""}}},{"type":"Feature","geometry":{"type":"LineString","coordinates":[[2.259412,48.819227],[2.259482,48.81916],[2.259632,48.819114],[2.259766,48.8191],[2.259858,48.819129],[2.260598,48.819468],[2.261982,48.819464],[2.262239,48.819503],[2.262695,48.819574],[2.263141,48.819609],[2.263259,48.819588],[2.263334,48.819531]]},"properties":{"name":"Rue de la Défense","description":"","Équipe":"GPSO","Heure":"00:00","Commentaires":"","_umap_options":{"color":"Green","opacity":"0,7","weight":"9","showLabel":""}}},{"type":"Feature","geometry":{"type":"LineString","coordinates":[[2.258602,48.816617],[2.258549,48.816541],[2.258487,48.816407],[2.258412,48.816267],[2.258289,48.816038],[2.257851,48.81613],[2.257352,48.816478],[2.257334,48.816548],[2.257411,48.816704],[2.257538,48.816965],[2.257583,48.817045]]},"properties":{"name":"Rue de la Pastorale d'Issy","description":"","Équipe":"GPSO","Heure":"00:00","Commentaires":"","_umap_options":{"color":"Green","opacity":"0,7","weight":"9","showLabel":""}}},{"type":"Feature","geometry":{"type":"LineString","coordinates":[[2.257851,48.817573],[2.257591,48.817062],[2.258466,48.816866],[2.258455,48.816806],[2.258474,48.816737],[2.258576,48.816652],[2.258621,48.816635],[2.258672,48.816621],[2.258975,48.816555],[2.259107,48.816531],[2.259327,48.816501],[2.259686,48.816421],[2.259834,48.816389]]},"properties":{"name":"Rue Honoré Fragonard","description":"","Équipe":"GPSO","Heure":"00:00","Commentaires":"","_umap_options":{"color":"Green","opacity":"0,7","weight":"9","showLabel":""}}}]}